[{"OBJECT_NAME":"STARLINK-5122","OBJECT_ID":"2022-141Y","EPOCH":"2026-03-09T04:33:20.451456","MEAN_MOTION":15.08832639,"ECCENTRICITY":0.00014858,"INCLINATION":53.2185,"RA_OF_ASC_NODE":6.2525,"ARG_OF_PERICENTER":100.9333,"MEAN_ANOMALY":259.1826,"EPHEMERIS_TYPE":0,"CLASSIFICATION_TYPE":"U","NORAD_CAT_ID":54179,"ELEMENT_SET_NO":999,"REV_AT_EPOCH":18578,"BSTAR":-0.00011632371,"MEAN_MOTION_DOT":-2.138e-5,"MEAN_MOTION_DDOT":0},{"OBJECT_NAME":"PEGASUS DEB","OBJECT_ID":"1994-029LN","EPOCH":"2026-03-09T13:32:28.639104","MEAN_MOTION":14.7969053,"ECCENTRICITY":0.014325,"INCLINATION":81.5077,"RA_OF_ASC_NODE":265.5669,"ARG_OF_PERICENTER":165.8227,"MEAN_ANOMALY":194.7072,"EPHEMERIS_TYPE":0,"CLASSIFICATION_TYPE":"U","NORAD_CAT_ID":24239,"ELEMENT_SET_NO":999,"REV_AT_EPOCH":56152,"BSTAR":0.0015079,"MEAN_MOTION_DOT":0.00013522,"MEAN_MOTION_DDOT":0}]
